1 44817U 19081P   21160.87934851  .00002399  00000-0  10955-3 0  9994
2 44817  97.4497 224.9796 0012646  85.1547 275.1133 15.21494610 85192
1 44817U 19081P   21161.47124961  .00002210  00000-0  10115-3 0  9994
2 44817  97.4497 225.5655 0012642  83.3706 276.8969 15.21497086 85281
1 44817U 19081P   21161.80008325  .00002038  00000-0  93560-4 0  9990
2 44817  97.4496 225.8910 0012639  82.3542 277.9129 15.21498110 85335
1 44817U 19081P   21161.93161661  .00002001  00000-0  91887-4 0  9997
2 44817  97.4495 226.0211 0012629  81.9892 278.2776 15.21498551 85356
1 44817U 19081P   21162.45774892  .00002308  00000-0  10549-3 0  9996
2 44817  97.4494 226.5419 0012616  80.3910 279.8751 15.21502278 85431
1 44817U 19081P   21162.85234725  .00002530  00000-0  11534-3 0  9998
2 44817  97.4493 226.9325 0012599  79.1570 281.1083 15.21505154 85494
1 44817U 19081P   21163.11541267  .00002485  00000-0  11336-3 0  9999
2 44817  97.4493 227.1929 0012585  78.3702 281.8945 15.21506420 85536
1 44817U 19081P   21163.44424388  .00002485  00000-0  11333-3 0  9996
2 44817  97.4492 227.5184 0012569  77.3856 282.8785 15.21508293 85581
1 44817U 19081P   21163.70730855  .00002411  00000-0  11003-3 0  9997
2 44817  97.4492 227.7788 0012553  76.5707 283.6927 15.21509667 85620
1 44817U 19081P   21164.43073522  .00002358  00000-0  10768-3 0  9996
2 44817  97.4491 228.4949 0012506  74.3562 285.9053 15.21513620 85730
1 44817U 19081P   21164.89109626  .00002452  00000-0  11185-3 0  9990
2 44817  97.4490 228.9506 0012490  72.9459 287.3144 15.21516858 85805
1 44817U 19081P   21165.41722247  .00002300  00000-0  10509-3 0  9990
2 44817  97.4490 229.4714 0012474  71.3597 288.8992 15.21519564 85882
1 44817U 19081P   21165.74605092  .00002246  00000-0  10272-3 0  9990
2 44817  97.4490 229.7969 0012474  70.3536 289.9045 15.21521313 85931
1 44817U 19081P   21165.87758219  .00002279  00000-0  10415-3 0  9999
2 44817  97.4489 229.9271 0012466  69.9530 290.3046 15.21522044 85957
1 44817U 19081P   21166.46947208  .00002311  00000-0  10559-3 0  9999
2 44817  97.4489 230.5130 0012442  68.1857 292.0701 15.21525404 86047
1 44817U 19081P   21166.73253396  .00002248  00000-0  10278-3 0  9994
2 44817  97.4489 230.7733 0012430  67.3772 292.8777 15.21526565 86086
1 44817U 19081P   21167.12712601  .00002371  00000-0  10822-3 0  9999
2 44817  97.4488 231.1639 0012399  66.1577 294.0957 15.21529044 86145
1 44817U 19081P   21167.45595199  .00002620  00000-0  11927-3 0  9990
2 44817  97.4489 231.4894 0012383  65.1386 295.1136 15.21531726 86198
1 44817U 19081P   21167.78477763  .00002711  00000-0  12329-3 0  9990
2 44817  97.4488 231.8148 0012355  64.0769 296.1739 15.21533931 86241
1 44817U 19081P   21168.37666294  .00002911  00000-0  13214-3 0  9991
2 44817  97.4489 232.4007 0012305  62.2576 297.9906 15.21537883 86339
1 44817U 19081P   21168.44242784  .00002979  00000-0  13513-3 0  9999
2 44817  97.4489 232.4658 0012300  62.0565 298.1915 15.21538495 86346
1 44817U 19081P   21168.83701700  .00002852  00000-0  12952-3 0  9996
2 44817  97.4489 232.8564 0012276  60.7876 299.4586 15.21540575 86405
1 44817U 19081P   21169.42890011  .00002512  00000-0  11445-3 0  9995
2 44817  97.4490 233.4422 0012233  58.9550 301.2885 15.21543001 86498
1 44817U 19081P   21170.48113310  .00002439  00000-0  11120-3 0  9991
2 44817  97.4492 234.4838 0012177  55.7576 304.4812 15.21549014 86655
1 44817U 19081P   21170.87571966  .00002312  00000-0  10553-3 0  9998
2 44817  97.4492 234.8744 0012143  54.5548 305.6820 15.21550668 86710
1 44817U 19081P   21170.94148406  .00002315  00000-0  10568-3 0  9994
2 44817  97.4492 234.9395 0012139  54.3348 305.9016 15.21550982 86724
1 44817U 19081P   21172.45406108  .00002304  00000-0  10516-3 0  9999
2 44817  97.4493 236.4366 0012023  49.5922 310.6361 15.21558146 86957
1 44817U 19081P   21173.44052140  .00002154  00000-0  98519-4 0  9995
2 44817  97.4493 237.4130 0011920  46.4289 313.7934 15.21561757 87104
1 44817U 19081P   21173.63781262  .00002395  00000-0  10918-3 0  9993
2 44817  97.4493 237.6083 0011905  45.7865 314.4347 15.21563666 87138
1 44817U 19081P   21174.49274148  .00002457  00000-0  11191-3 0  9991
2 44817  97.4492 238.4545 0011832  43.0587 317.1572 15.21567768 87261
1 44817U 19081P   21174.75579594  .00002509  00000-0  11422-3 0  9998
2 44817  97.4492 238.7149 0011815  42.2259 317.9884 15.21569253 87302
1 44817U 19081P   21174.88732314  .00002540  00000-0  11560-3 0  9991
2 44817  97.4492 238.8451 0011806  41.8129 318.4007 15.21569924 87320
1 44817U 19081P   21175.47919498  .00002439  00000-0  11110-3 0  9995
2 44817  97.4492 239.4310 0011765  39.9648 320.2452 15.21572364 87416
1 44817U 19081P   21175.87377523  .00002497  00000-0  11369-3 0  9996
2 44817  97.4491 239.8216 0011725  38.7101 321.4973 15.21574517 87470
1 44817U 19081P   21175.93953859  .00002510  00000-0  11424-3 0  9993
2 44817  97.4491 239.8867 0011716  38.5031 321.7038 15.21574856 87484
1 44817U 19081P   21176.13682834  .00002798  00000-0  12699-3 0  9991
2 44817  97.4490 240.0820 0011697  37.8521 322.3535 15.21576866 87516
1 44817U 19081P   21176.86022355  .00002718  00000-0  12344-3 0  9996
2 44817  97.4489 240.7981 0011626  35.5044 324.6963 15.21580242 87621
1 44817U 19081P   21177.05751278  .00002729  00000-0  12395-3 0  9999
2 44817  97.4488 240.9934 0011603  34.8601 325.3393 15.21581329 87651
1 44817U 19081P   21177.45209097  .00002678  00000-0  12167-3 0  9990
2 44817  97.4487 241.3840 0011559  33.5553 326.6413 15.21583190 87715
1 44817U 19081P   21177.84666832  .00002824  00000-0  12811-3 0  9996
2 44817  97.4486 241.7746 0011541  32.3007 327.8933 15.21585846 87771
1 44817U 19081P   21178.43853368  .00002664  00000-0  12105-3 0  9992
2 44817  97.4485 242.3606 0011481  30.3079 329.8819 15.21588504 87861
1 44817U 19081P   21178.89887237  .00002650  00000-0  12041-3 0  9998
2 44817  97.4484 242.8162 0011423  28.7883 331.3981 15.21591030 87936
1 44817U 19081P   21179.16192287  .00002512  00000-0  11432-3 0  9993
2 44817  97.4484 243.0767 0011397  27.9098 332.2747 15.21592076 87974
1 44817U 19081P   21179.62226054  .00002537  00000-0  11541-3 0  9992
2 44817  97.4484 243.5324 0011354  26.3900 333.7912 15.21594672 88049
1 44817U 19081P   21179.88531020  .00002602  00000-0  11825-3 0  9990
2 44817  97.4484 243.7928 0011335  25.5312 334.6481 15.21596275 88084
1 44817U 19081P   21180.74022077  .00002715  00000-0  12326-3 0  9996
2 44817  97.4484 244.6391 0011258  22.7449 337.4283 15.21600798 88214
1 44817U 19081P   21180.87174496  .00002958  00000-0  13399-3 0  9993
2 44817  97.4483 244.7693 0011241  22.2842 337.8880 15.21602273 88232
1 44817U 19081P   21181.46360419  .00003110  00000-0  14070-3 0  9999
2 44817  97.4483 245.3551 0011182  20.3362 339.8317 15.21605678 88321
1 44817U 19081P   21181.92393789  .00003214  00000-0  14530-3 0  9992
2 44817  97.4482 245.8108 0011127  18.7624 341.4020 15.21608479 88393
1 44817U 19081P   21182.12122352  .00003200  00000-0  14469-3 0  9997
2 44817  97.4483 246.0060 0011105  18.0591 342.1037 15.21609611 88425
1 44817U 19081P   21182.45003249  .00003335  00000-0  15065-3 0  9998
2 44817  97.4483 246.3315 0011069  16.9352 343.2251 15.21611906 88477
1 44817U 19081P   21182.84460260  .00003337  00000-0  15071-3 0  9990
2 44817  97.4482 246.7220 0011023  15.5408 344.6164 15.21614324 88534
1 44817U 19081P   21183.37069505  .00003305  00000-0  14930-3 0  9994
2 44817  97.4483 247.2427 0010957  13.7028 346.4503 15.21617578 88613
1 44817U 19081P   21183.50221806  .00003263  00000-0  14742-3 0  9997
2 44817  97.4484 247.3729 0010942  13.2409 346.9112 15.21618279 88634
1 44817U 19081P   21183.89678619  .00003374  00000-0  15232-3 0  9995
2 44817  97.4484 247.7634 0010907  11.8609 348.2882 15.21621336 88693
1 44817U 19081P   21184.42287637  .00003192  00000-0  14426-3 0  9993
2 44817  97.4485 248.2842 0010865  10.0475 350.0976 15.21624264 88773
1 44817U 19081P   21184.48863744  .00003225  00000-0  14575-3 0  9990
2 44817  97.4485 248.3493 0010852   9.8188 350.3257 15.21624854 88780
1 44817U 19081P   21184.88320431  .00003121  00000-0  14113-3 0  9998
2 44817  97.4486 248.7399 0010822   8.4315 351.7101 15.21627079 88846
1 44817U 19081P   21185.47505343  .00002964  00000-0  13418-3 0  9992
2 44817  97.4487 249.3257 0010752   6.4183 353.7189 15.21630325 88936
1 44817U 19081P   21185.73809707  .00002975  00000-0  13468-3 0  9999
2 44817  97.4487 249.5861 0010729   5.5197 354.6155 15.21631921 88978
1 44817U 19081P   21185.86961881  .00003068  00000-0  13876-3 0  9992
2 44817  97.4487 249.7163 0010711   5.0470 355.0872 15.21632903 88999
1 44817U 19081P   21186.46146607  .00002924  00000-0  13238-3 0  9992
2 44817  97.4487 250.3021 0010639   3.0007 357.1291 15.21635646 89089
1 44817U 19081P   21186.85602999  .00002824  00000-0  12799-3 0  9996
2 44817  97.4487 250.6926 0010598   1.5818 358.5449 15.21637598 89148
1 44817U 19081P   21187.11907218  .00002921  00000-0  13223-3 0  9999
2 44817  97.4487 250.9530 0010566   0.6256 359.4991 15.21639437 89183
1 44817U 19081P   21187.44787429  .00002965  00000-0  13417-3 0  9998
2 44817  97.4487 251.2784 0010527 359.4476   0.6746 15.21641625 89235
1 44817U 19081P   21187.84243676  .00002892  00000-0  13094-3 0  9993
2 44817  97.4487 251.6689 0010475 357.9936   2.1256 15.21643661 89290
1 44817U 19081P   21188.43427940  .00002672  00000-0  12124-3 0  9996
2 44817  97.4487 252.2548 0010414 355.8344   4.2804 15.21646378 89384
1 44817U 19081P   21188.89460037  .00002669  00000-0  12109-3 0  9999
2 44817  97.4486 252.7104 0010366 354.1687   5.9427 15.21649176 89450
1 44817U 19081P   21189.42068055  .00002665  00000-0  12090-3 0  9998
2 44817  97.4486 253.2312 0010312 352.2837   7.8239 15.21652349 89531
1 44817U 19081P   21189.74948034  .00002559  00000-0  11621-3 0  9998
2 44817  97.4486 253.5567 0010281 351.1172   8.9880 15.21653914 89589
1 44817U 19081P   21190.40707858  .00002347  00000-0  10684-3 0  9993
2 44817  97.4486 254.2077 0010210 348.7337  11.3668 15.21656918 89680
